[
  {
    "OBJECT_NAME": "STARLINK-32720",
    "OBJECT_ID": "24251V",
    "EPOCH": "2025-11-10T23:57:31.702176",
    "MEAN_MOTION": 15.30217464,
    "ECCENTRICITY": 8.14e-05,
    "INCLINATION": 53.1587,
    "RA_OF_ASC_NODE": 166.7959,
    "ARG_OF_PERICENTER": 93.444,
    "MEAN_ANOMALY": 266.6654,
    "EPHEMERIS_TYPE": 0,
    "CLASSIFICATION_TYPE": "U",
    "NORAD_CAT_ID": 62451,
    "ELEMENT_SET_NO": 999,
    "REV_AT_EPOCH": 4940,
    "BSTAR": 0.0013553999999999999,
    "MEAN_MOTION_DOT": 0.0004002,
    "MEAN_MOTION_DDOT": 0.0,
    "TLE_LINE1": "1 62451U 24251V   25314.99828359  .00040020  00000+0  13554-2 0  9995",
    "TLE_LINE2": "2 62451  53.1587 166.7959 0000814  93.4440 266.6654 15.30217464 49404",
    "COMMENT": "Grouped by shell and plane from TLE"
  },
  {
    "OBJECT_NAME": "STARLINK-32656",
    "OBJECT_ID": "24251W",
    "EPOCH": "2025-11-11T00:18:47.658240",
    "MEAN_MOTION": 15.3023547,
    "ECCENTRICITY": 9.4e-05,
    "INCLINATION": 53.1609,
    "RA_OF_ASC_NODE": 166.8871,
    "ARG_OF_PERICENTER": 297.3043,
    "MEAN_ANOMALY": 62.7862,
    "EPHEMERIS_TYPE": 0,
    "CLASSIFICATION_TYPE": "U",
    "NORAD_CAT_ID": 62452,
    "ELEMENT_SET_NO": 999,
    "REV_AT_EPOCH": 4961,
    "BSTAR": 0.0013233000000000001,
    "MEAN_MOTION_DOT": 0.00039083,
    "MEAN_MOTION_DDOT": 0.0,
    "TLE_LINE1": "1 62452U 24251W   25315.01305160  .00039083  00000+0  13233-2 0  9991",
    "TLE_LINE2": "2 62452  53.1609 166.8871 0000940 297.3043  62.7862 15.30235470 49614",
    "COMMENT": "Grouped by shell and plane from TLE"
  },
  {
    "OBJECT_NAME": "STARLINK-32690",
    "OBJECT_ID": "24251X",
    "EPOCH": "2025-11-11T06:59:09.928032",
    "MEAN_MOTION": 15.3020906,
    "ECCENTRICITY": 9.25e-05,
    "INCLINATION": 53.1605,
    "RA_OF_ASC_NODE": 165.0639,
    "ARG_OF_PERICENTER": 91.2691,
    "MEAN_ANOMALY": 268.8416,
    "EPHEMERIS_TYPE": 0,
    "CLASSIFICATION_TYPE": "U",
    "NORAD_CAT_ID": 62453,
    "ELEMENT_SET_NO": 999,
    "REV_AT_EPOCH": 4944,
    "BSTAR": 0.0010907,
    "MEAN_MOTION_DOT": 0.00032092,
    "MEAN_MOTION_DDOT": 0.0,
    "TLE_LINE1": "1 62453U 24251X   25315.29108713  .00032092  00000+0  10907-2 0  9995",
    "TLE_LINE2": "2 62453  53.1605 165.0639 0000925  91.2691 268.8416 15.30209060 49448",
    "COMMENT": "Grouped by shell and plane from TLE"
  },
  {
    "OBJECT_NAME": "STARLINK-32748",
    "OBJECT_ID": "25004P",
    "EPOCH": "2025-11-11T00:47:05.050176",
    "MEAN_MOTION": 15.27634566,
    "ECCENTRICITY": 0.0004025,
    "INCLINATION": 42.9988,
    "RA_OF_ASC_NODE": 169.8068,
    "ARG_OF_PERICENTER": 245.3124,
    "MEAN_ANOMALY": 114.7309,
    "EPHEMERIS_TYPE": 0,
    "CLASSIFICATION_TYPE": "U",
    "NORAD_CAT_ID": 62524,
    "ELEMENT_SET_NO": 999,
    "REV_AT_EPOCH": 4831,
    "BSTAR": 0.0017155,
    "MEAN_MOTION_DOT": 0.00047334,
    "MEAN_MOTION_DDOT": 0.0,
    "TLE_LINE1": "1 62524U 25004P   25315.03269734  .00047334  00000+0  17155-2 0  9991",
    "TLE_LINE2": "2 62524  42.9988 169.8068 0004025 245.3124 114.7309 15.27634566 48317",
    "COMMENT": "Grouped by shell and plane from TLE"
  },
  {
    "OBJECT_NAME": "STARLINK-32741",
    "OBJECT_ID": "25004R",
    "EPOCH": "2025-11-10T23:54:20.860992",
    "MEAN_MOTION": 15.27631457,
    "ECCENTRICITY": 0.0002152,
    "INCLINATION": 43.0,
    "RA_OF_ASC_NODE": 166.9265,
    "ARG_OF_PERICENTER": 259.2342,
    "MEAN_ANOMALY": 100.8268,
    "EPHEMERIS_TYPE": 0,
    "CLASSIFICATION_TYPE": "U",
    "NORAD_CAT_ID": 62526,
    "ELEMENT_SET_NO": 999,
    "REV_AT_EPOCH": 4834,
    "BSTAR": 0.001707,
    "MEAN_MOTION_DOT": 0.00047087,
    "MEAN_MOTION_DDOT": 0.0,
    "TLE_LINE1": "1 62526U 25004R   25314.99607478  .00047087  00000+0  17070-2 0  9999",
    "TLE_LINE2": "2 62526  43.0000 166.9265 0002152 259.2342 100.8268 15.27631457 48347",
    "COMMENT": "Grouped by shell and plane from TLE"
  },
  {
    "OBJECT_NAME": "STARLINK-34003",
    "OBJECT_ID": "25094U",
    "EPOCH": "2025-11-10T23:42:03.284928",
    "MEAN_MOTION": 15.42750521,
    "ECCENTRICITY": 0.0003688,
    "INCLINATION": 69.9998,
    "RA_OF_ASC_NODE": 165.6901,
    "ARG_OF_PERICENTER": 273.3321,
    "MEAN_ANOMALY": 86.7439,
    "EPHEMERIS_TYPE": 0,
    "CLASSIFICATION_TYPE": "U",
    "NORAD_CAT_ID": 63882,
    "ELEMENT_SET_NO": 999,
    "REV_AT_EPOCH": 2962,
    "BSTAR": 0.0012688,
    "MEAN_MOTION_DOT": 0.00055892,
    "MEAN_MOTION_DDOT": 0.0,
    "TLE_LINE1": "1 63882U 25094U   25314.98753802  .00055892  00000+0  12688-2 0  9999",
    "TLE_LINE2": "2 63882  69.9998 165.6901 0003688 273.3321  86.7439 15.42750521 29621",
    "COMMENT": "Grouped by shell and plane from TLE"
  },
  {
    "OBJECT_NAME": "STARLINK-34504",
    "OBJECT_ID": "25137G",
    "EPOCH": "2025-11-11T06:00:52.640928",
    "MEAN_MOTION": 15.39642826,
    "ECCENTRICITY": 0.0003236,
    "INCLINATION": 53.1552,
    "RA_OF_ASC_NODE": 169.4757,
    "ARG_OF_PERICENTER": 67.4064,
    "MEAN_ANOMALY": 292.7283,
    "EPHEMERIS_TYPE": 0,
    "CLASSIFICATION_TYPE": "U",
    "NORAD_CAT_ID": 64600,
    "ELEMENT_SET_NO": 999,
    "REV_AT_EPOCH": 2254,
    "BSTAR": 0.0017201,
    "MEAN_MOTION_DOT": 0.00069089,
    "MEAN_MOTION_DDOT": 0.0,
    "TLE_LINE1": "1 64600U 25137G   25315.25060927  .00069089  00000+0  17201-2 0  9995",
    "TLE_LINE2": "2 64600  53.1552 169.4757 0003236  67.4064 292.7283 15.39642826 22541",
    "COMMENT": "Grouped by shell and plane from TLE"
  },
  {
    "OBJECT_NAME": "STARLINK-34508",
    "OBJECT_ID": "25137H",
    "EPOCH": "2025-11-11T05:40:48.575712",
    "MEAN_MOTION": 15.39656818,
    "ECCENTRICITY": 0.0002487,
    "INCLINATION": 53.1507,
    "RA_OF_ASC_NODE": 169.3885,
    "ARG_OF_PERICENTER": 104.156,
    "MEAN_ANOMALY": 255.9722,
    "EPHEMERIS_TYPE": 0,
    "CLASSIFICATION_TYPE": "U",
    "NORAD_CAT_ID": 64601,
    "ELEMENT_SET_NO": 999,
    "REV_AT_EPOCH": 2254,
    "BSTAR": 0.0015711,
    "MEAN_MOTION_DOT": 0.00063046,
    "MEAN_MOTION_DDOT": 0.0,
    "TLE_LINE1": "1 64601U 25137H   25315.23667333  .00063046  00000+0  15711-2 0  9999",
    "TLE_LINE2": "2 64601  53.1507 169.3885 0002487 104.1560 255.9722 15.39656818 22545",
    "COMMENT": "Grouped by shell and plane from TLE"
  },
  {
    "OBJECT_NAME": "STARLINK-34516",
    "OBJECT_ID": "25137M",
    "EPOCH": "2025-11-11T05:27:26.542656",
    "MEAN_MOTION": 15.39614006,
    "ECCENTRICITY": 0.0003571,
    "INCLINATION": 53.1652,
    "RA_OF_ASC_NODE": 169.329,
    "ARG_OF_PERICENTER": 20.2661,
    "MEAN_ANOMALY": 339.8485,
    "EPHEMERIS_TYPE": 0,
    "CLASSIFICATION_TYPE": "U",
    "NORAD_CAT_ID": 64605,
    "ELEMENT_SET_NO": 999,
    "REV_AT_EPOCH": 2264,
    "BSTAR": 0.0013444000000000002,
    "MEAN_MOTION_DOT": 0.00053751,
    "MEAN_MOTION_DDOT": 0.0,
    "TLE_LINE1": "1 64605U 25137M   25315.22739054  .00053751  00000+0  13444-2 0  9995",
    "TLE_LINE2": "2 64605  53.1652 169.3290 0003571  20.2661 339.8485 15.39614006 22647",
    "COMMENT": "Grouped by shell and plane from TLE"
  },
  {
    "OBJECT_NAME": "STARLINK-34494",
    "OBJECT_ID": "25137T",
    "EPOCH": "2025-11-11T02:34:20.238816",
    "MEAN_MOTION": 15.39638694,
    "ECCENTRICITY": 0.00013,
    "INCLINATION": 53.1565,
    "RA_OF_ASC_NODE": 169.9995,
    "ARG_OF_PERICENTER": 72.1895,
    "MEAN_ANOMALY": 287.9251,
    "EPHEMERIS_TYPE": 0,
    "CLASSIFICATION_TYPE": "U",
    "NORAD_CAT_ID": 64611,
    "ELEMENT_SET_NO": 999,
    "REV_AT_EPOCH": 2252,
    "BSTAR": 0.0011592,
    "MEAN_MOTION_DOT": 0.00046277,
    "MEAN_MOTION_DDOT": 0.0,
    "TLE_LINE1": "1 64611U 25137T   25315.10717869  .00046277  00000+0  11592-2 0  9996",
    "TLE_LINE2": "2 64611  53.1565 169.9995 0001300  72.1895 287.9251 15.39638694 22528",
    "COMMENT": "Grouped by shell and plane from TLE"
  },
  {
    "OBJECT_NAME": "STARLINK-34415",
    "OBJECT_ID": "25137AA",
    "EPOCH": "2025-11-11T03:27:41.529888",
    "MEAN_MOTION": 15.3963562,
    "ECCENTRICITY": 0.0001197,
    "INCLINATION": 53.1584,
    "RA_OF_ASC_NODE": 169.5173,
    "ARG_OF_PERICENTER": 83.3703,
    "MEAN_ANOMALY": 276.7438,
    "EPHEMERIS_TYPE": 0,
    "CLASSIFICATION_TYPE": "U",
    "NORAD_CAT_ID": 64618,
    "ELEMENT_SET_NO": 999,
    "REV_AT_EPOCH": 2253,
    "BSTAR": 0.0012118,
    "MEAN_MOTION_DOT": 0.00048404,
    "MEAN_MOTION_DDOT": 0.0,
    "TLE_LINE1": "1 64618U 25137AA  25315.14423067  .00048404  00000+0  12118-2 0  9990",
    "TLE_LINE2": "2 64618  53.1584 169.5173 0001197  83.3703 276.7438 15.39635620 22536",
    "COMMENT": "Grouped by shell and plane from TLE"
  },
  {
    "OBJECT_NAME": "STARLINK-34086",
    "OBJECT_ID": "25216A",
    "EPOCH": "2025-11-11T07:05:37.171968",
    "MEAN_MOTION": 15.39663566,
    "ECCENTRICITY": 0.000128,
    "INCLINATION": 53.1586,
    "RA_OF_ASC_NODE": 163.7659,
    "ARG_OF_PERICENTER": 96.5736,
    "MEAN_ANOMALY": 263.5415,
    "EPHEMERIS_TYPE": 0,
    "CLASSIFICATION_TYPE": "U",
    "NORAD_CAT_ID": 65734,
    "ELEMENT_SET_NO": 999,
    "REV_AT_EPOCH": 842,
    "BSTAR": 0.0012900000000000001,
    "MEAN_MOTION_DOT": 0.00051624,
    "MEAN_MOTION_DDOT": 0.0,
    "TLE_LINE1": "1 65734U 25216A   25315.29556912  .00051624  00000+0  12900-2 0  9997",
    "TLE_LINE2": "2 65734  53.1586 163.7659 0001280  96.5736 263.5415 15.39663566  8429",
    "COMMENT": "Grouped by shell and plane from TLE"
  },
  {
    "OBJECT_NAME": "STARLINK-35099",
    "OBJECT_ID": "25216B",
    "EPOCH": "2025-11-10T20:57:57.121920",
    "MEAN_MOTION": 15.39632377,
    "ECCENTRICITY": 0.0001277,
    "INCLINATION": 53.1581,
    "RA_OF_ASC_NODE": 165.3935,
    "ARG_OF_PERICENTER": 87.1168,
    "MEAN_ANOMALY": 272.9983,
    "EPHEMERIS_TYPE": 0,
    "CLASSIFICATION_TYPE": "U",
    "NORAD_CAT_ID": 65735,
    "ELEMENT_SET_NO": 999,
    "REV_AT_EPOCH": 831,
    "BSTAR": 0.0016587,
    "MEAN_MOTION_DOT": 0.00066554,
    "MEAN_MOTION_DDOT": 0.0,
    "TLE_LINE1": "1 65735U 25216B   25314.87357780  .00066554  00000+0  16587-2 0  9996",
    "TLE_LINE2": "2 65735  53.1581 165.3935 0001277  87.1168 272.9983 15.39632377  8319",
    "COMMENT": "Grouped by shell and plane from TLE"
  }
]